ONEWEB-0361             
1 49287U 21090J   24039.68806384  .00000140  00000+0  31252-3 0  9993
2 49287  87.9147  85.5224 0001920 102.0207 258.1142 13.20771790116848
ONEWEB-0362             
1 49288U 21090K   24039.71805979  .00000015  00000+0  55732-5 0  9999
2 49288  87.9183 116.0778 0001872  90.8804 269.2543 13.19725923113554
ONEWEB-0363             
1 49289U 21090L   24039.62809104  .00000081  00000+0  16656-3 0  9997
2 49289  87.9148  85.5297 0001810 111.4070 248.7257 13.20771552116849
ONEWEB-0364             
1 49290U 21090M   24040.12050622  .00000103  00000+0  22030-3 0  9997
2 49290  87.9146  85.4545 0002146  97.8555 262.2821 13.20772025118860
ONEWEB-0365             
1 49291U 21090N   24040.25825326  .00000006  00000+0 -16479-4 0  9997
2 49291  87.9175 115.9594 0001928  98.8195 261.3156 13.19725989114428
ONEWEB-0366             
1 49292U 21090P   24039.68550791  .00000236  00000+0  60212-3 0  9991
2 49292  87.8944 100.7991 0002076 103.2209 256.9152 13.14503118114640
ONEWEB-0367             
1 49293U 21090Q   24039.62651057  .00000082  00000+0  16863-3 0  9995
2 49293  87.9148  85.5243 0002237  99.2181 260.9205 13.20771298116368
ONEWEB-0368             
1 49294U 21090R   24040.12997615  .00000086  00000+0  18054-3 0  9994
2 49294  87.9147  85.4526 0002658 110.8879 249.2539 13.20772356118887
